STARLINK-5820           
1 55781C 23028AS  26107.01576389  .00035219  00000+0  29505-2 0  1079
2 55781  69.9995 127.7646 0003759 267.2547 189.0586 14.98323924    18
STARLINK-5826           
1 55782C 23028AT  26107.08312500 -.00036279  00000+0 -30392-2 0  1075
2 55782  69.9994 107.8348 0004074 266.2168  58.6926 14.98359504    17
STARLINK-5825           
1 55783C 23028AU  26107.01437500  .00000562  00000+0  47125-4 0  1075
2 55783  69.9993 108.0059 0003562 266.5747  48.5027 14.98339432    14
STARLINK-5797           
1 55784C 23028AV  26107.04770833 -.00018306  00000+0 -15337-2 0  1073
2 55784  69.9995 107.8233 0003470 264.6489 319.3018 14.98348376    14
STARLINK-5818           
1 55785C 23028AW  26107.01298611  .00002753  00000+0  23071-3 0  1072
2 55785  69.9994 107.9848 0003448 264.6820  65.3786 14.98333052    16
STARLINK-5823           
1 55786C 23028AX  26107.04284722 -.00015763  00000+0 -13206-2 0  1079
2 55786  69.9996 107.8346 0003551 265.9269 292.7163 14.98349022    16
STARLINK-5811           
1 55787C 23028AY  26107.03381944 -.00009845  00000+0 -82499-3 0  1078
2 55787  69.9995 107.9074 0003661 266.1359 198.7424 14.98336842    11
STARLINK-5804           
1 55788C 23028AZ  26106.99145833  .00014777  00000+0  12379-2 0  1064
2 55788  69.9994 107.9892 0003472 267.8758 351.1393 14.98336817    12
STARLINK-5815           
1 55789C 23028BA  26107.00604167  .00007486  00000+0  62721-3 0  1075
2 55789  69.9992 107.7998 0003569 266.4451 206.2707 14.98334682    15
STARLINK-5813           
1 55790C 23028BB  26107.04770833 -.00014069  00000+0 -11793-2 0  1074
2 55790  69.9992 107.7219 0003290 269.8145  44.2188 14.98328101    13
STARLINK-5807           
1 55791C 23028BC  26106.99423611  .00016580  00000+0  13890-2 0  1064
2 55791  69.9993 107.9318 0003472 267.2437  51.7453 14.98334501    14
STARLINK-5856           
1 55914C 23037A   26107.04909722  .00024421  00000+0  20463-2 0  1078
2 55914  70.0026 207.8877 0003210 270.0200 293.5405 14.98323309    18
STARLINK-5859           
1 55915C 23037B   26107.05048611  .00025639  00000+0  21493-2 0  1077
2 55915  70.0022 207.7830 0003325 268.6761  32.4444 14.98305654    11
STARLINK-5796           
1 55916C 23037C   26107.06298611  .00048322  00000+0  40472-2 0  1078
2 55916  70.0026 207.8268 0003535 267.2439  33.7442 14.98327310    17
STARLINK-5867           
1 55918C 23037E   26107.05604167  .00030336  00000+0  25427-2 0  1075
2 55918  70.0025 207.8190 0003594 266.9788  19.0836 14.98307672    13
STARLINK-5871           
1 55919C 23037F   26107.02965278  .00006842  00000+0  57346-3 0  1077
2 55919  70.0023 207.8356 0003236 268.4382 279.4445 14.98319932    16
STARLINK-5862           
1 55920C 23037G   26106.99631944  .00025934  00000+0  21739-2 0  1062
2 55920  70.0019 188.0672 0003223 269.6965  78.0303 14.98307183    11
STARLINK-5861           
1 55921C 23037H   26107.05187500  .00026912  00000+0  22558-2 0  1073
2 55921  70.0025 207.6787 0002827 269.2283 129.4145 14.98309600    13
STARLINK-5863           
1 55922C 23037J   26107.02895833  .00007211  00000+0  60448-3 0  1078
2 55922  70.0024 207.7616 0003246 269.4101 343.1527 14.98315693    10
STARLINK-5854           
1 55923C 23037K   26107.03868056  .00016241  00000+0  13615-2 0  1073
2 55923  70.0023 207.7621 0003579 268.4713  13.8865 14.98308425    14
STARLINK-5849           
1 55924C 23037L   26107.05881944  .00066278  00000+0  55550-2 0  1076
2 55924  70.0020 187.8826 0003347 267.3888  79.8791 14.98291521    19
STARLINK-5922           
1 55925C 23037M   26107.01368056 -.00004988  00000+0 -41822-3 0  1077
2 55925  70.0025 207.7491 0003091 270.6149 304.5851 14.98315769    14
STARLINK-5921           
1 55926C 23037N   26107.05534722  .00064647  00000+0  54180-2 0  1073
2 55926  70.0022 187.8433 0003584 267.7940 105.7548 14.98294147    19
STARLINK-5919           
1 55927C 23037P   26107.03659722  .00015007  00000+0  12578-2 0  1071
2 55927  70.0026 207.6427 0003383 268.2853 114.6090 14.98316891    16
STARLINK-5930           
1 55928C 23037Q   26107.08659722  .00055173  00000+0  46240-2 0  1078
2 55928  70.0027 207.4892 0003362 267.4087  48.5094 14.98300367    19
STARLINK-5896           
1 55930C 23037S   26107.03034722  .00052491  00000+0  43992-2 0  1074
2 55930  70.0023 187.7330 0003531 266.9270 129.3764 14.98301378    16
STARLINK-5897           
1 55931C 23037T   26107.01854167  .00000626  00000+0  52506-4 0  1072
2 55931  70.0028 207.6356 0003419 269.8939  61.5346 14.98325265    15
STARLINK-5848           
1 55932C 23037U   26107.04840278  .00072580  00000+0  60819-2 0  1076
2 55932  70.0012 167.5511 0003640 265.3385  94.6317 14.98296553    10
STARLINK-5852           
1 55933C 23037V   26107.00604167  .00032207  00000+0  26994-2 0  1076
2 55933  70.0023 187.9441 0003419 268.5975 221.5909 14.98308805    17
STARLINK-5927           
1 55934C 23037W   26107.02548611  .00049627  00000+0  41597-2 0  1070
2 55934  70.0023 187.7425 0003477 268.0035 101.1979 14.98296948    18
STARLINK-5920           
1 55935C 23037X   26107.03312500  .00054705  00000+0  45849-2 0  1075
2 55935  70.0023 187.8481 0003525 267.0920  31.6557 14.98298396    16
STARLINK-5882           
1 55936C 23037Y   26106.99562500  .00061915  00000+0  51892-2 0  1062
2 55936  70.0016 167.7098 0003456 269.9691 142.7655 14.98295083    12
STARLINK-5913           
1 55937C 23037Z   26107.00395833  .00031865  00000+0  26708-2 0  1079
2 55937  70.0024 187.8967 0003581 264.2232 259.6397 14.98308693    11
STARLINK-5909           
1 55938C 23037AA  26107.01368056  .00040768  00000+0  34163-2 0  1074
2 55938  70.0024 187.8470 0003396 268.4832 330.4132 14.98311044    16
STARLINK-5918           
1 55939C 23037AB  26106.99423611  .00024513  00000+0  20550-2 0  1064
2 55939  70.0024 187.8457 0004116 269.1783 269.7988 14.98303045    11
STARLINK-5864           
1 55940C 23037AC  26107.00534722  .00034001  00000+0  28494-2 0  1074
2 55940  70.0024 187.8429 0003414 268.2549 308.2200 14.98313495    18
STARLINK-5914           
1 55941C 23037AD  26107.03798611  .00055531  00000+0  46543-2 0  1073
2 55941  70.0021 187.9117 0003514 268.9551 348.4790 14.98296557    11
STARLINK-5917           
1 55942C 23037AE  26107.08243056  .00069992  00000+0  58644-2 0  1078
2 55942  70.0021 187.4964 0003609 263.2794 143.8975 14.98301805    14
STARLINK-5932           
1 55943C 23037AF  26107.04354167  .00056007  00000+0  46945-2 0  1075
2 55943  70.0021 187.6359 0003343 268.1820 244.2970 14.98294687    14
STARLINK-5926           
1 55944C 23037AG  26107.06090278  .00066051  00000+0  55356-2 0  1074
2 55944  70.0020 187.5757 0003503 267.1810   1.4235 14.98294534    19
STARLINK-5925           
1 55945C 23037AH  26107.06993056  .00069139  00000+0  57949-2 0  1071
2 55945  70.0022 187.6052 0003375 267.8789   3.4944 14.98290393    18
STARLINK-5857           
1 55946C 23037AJ  26107.07548611  .00071617  00000+0  60026-2 0  1070
2 55946  70.0023 187.5895 0003380 267.6818  34.5398 14.98288430    18
STARLINK-5851           
1 55947C 23037AK  26107.01437500  .00959400  00000+0  22277-2 0  1070
2 55947  69.9988 173.4613 0004191 274.6823 191.6621 15.96360835    16
STARLINK-5900           
1 55948C 23037AL  26106.99215278  .00056855  00000+0  47655-2 0  1061
2 55948  70.0009 167.9964 0003380 267.7969 238.7422 14.98294110    19
STARLINK-5899           
1 55949C 23037AM  26107.05187500  .00069926  00000+0  58595-2 0  1075
2 55949  70.0011 167.8966 0003509 265.7559 157.8103 14.98297812    19
STARLINK-5911           
1 55950C 23037AN  26107.05881944  .00059454  00000+0  49828-2 0  1074
2 55950  70.0009 167.8033 0003463 267.1690 261.3652 14.98296949    14
STARLINK-5908           
1 55951C 23037AP  26107.02201389  .00043816  00000+0  36728-2 0  1071
2 55951  70.0022 187.6228 0003289 268.7583 195.1605 14.98299641    14
STARLINK-5893           
1 55952C 23037AQ  26107.04562500  .00068865  00000+0  57716-2 0  1070
2 55952  70.0009 167.8636 0003444 267.2824 166.6916 14.98291610    14
STARLINK-5892           
1 55954C 23037AS  26107.01923611  .00065272  00000+0  54708-2 0  1070
2 55954  70.0014 167.7524 0003468 268.5591 181.5955 14.98291383    14
STARLINK-5878           
1 55955C 23037AT  26107.00187500  .00063410  00000+0  53144-2 0  1074
2 55955  70.0011 167.8966 0003091 265.9619   0.4089 14.98295859    16
STARLINK-5883           
1 55956C 23037AU  26107.05743056  .00069287  00000+0  58066-2 0  1070
2 55956  70.0013 167.6056 0003343 268.0396  73.0683 14.98295005    12
STARLINK-5884           
1 55957C 23037AV  26107.04631944  .00063957  00000+0  53614-2 0  1074
2 55957  70.0009 167.8094 0003501 265.9087 217.7672 14.98286144    10
STARLINK-5928           
1 55958C 23037AW  26107.01645833  .00068741  00000+0  57615-2 0  1075
2 55958  70.0013 167.8350 0003383 267.0297 100.6132 14.98289897    14
STARLINK-5929           
1 55959C 23037AX  26107.04770833  .00061519  00000+0  51559-2 0  1075
2 55959  70.0012 167.7311 0003248 268.9242 289.7399 14.98296521    16
STARLINK-5938           
1 55960C 23037AY  26107.05118056  .00061518  00000+0  51561-2 0  1073
2 55960  70.0009 167.7800 0003444 267.2655 241.7088 14.98294346    11
STARLINK-5933           
1 55961C 23037AZ  26107.02340278  .00064245  00000+0  53851-2 0  1078
2 55961  70.0013 167.7169 0003312 267.7037 227.3392 14.98289865    16
STARLINK-5906           
1 55962C 23037BA  26107.00812500  .00064350  00000+0  53929-2 0  1072
2 55962  70.0011 167.9758 0003310 271.9017 298.2071 14.98296633    16
STARLINK-5924           
1 55963C 23037BB  26107.02756944  .00064965  00000+0  54424-2 0  1077
2 55963  70.0013 167.7570 0003785 264.6012 207.9517 14.98309595    13
STARLINK-5895           
1 55964C 23037BC  26107.05604167  .00063353  00000+0  40282-2 0  1077
2 55964  69.9956 162.4275 0005950 261.0949   7.1560 15.08685000    15
